[{"OBJECT_NAME":"ONEWEB-0056","OBJECT_ID":"2020-008AE","EPOCH":"2026-06-07T08:34:04.240128","MEAN_MOTION":13.10371977,"ECCENTRICITY":0.0001935,"INCLINATION":87.8844,"RA_OF_ASC_NODE":38.218,"ARG_OF_PERICENTER":90.8472,"MEAN_ANOMALY":269.2877,"EPHEMERIS_TYPE":0,"CLASSIFICATION_TYPE":"U","NORAD_CAT_ID":45159,"ELEMENT_SET_NO":999,"REV_AT_EPOCH":30689,"BSTAR":0.0010009,"MEAN_MOTION_DOT":3.62e-06,"MEAN_MOTION_DDOT":0.0},{"OBJECT_NAME":"ONEWEB-0057","OBJECT_ID":"2020-008AF","EPOCH":"2026-06-07T08:58:18.302880","MEAN_MOTION":13.10370047,"ECCENTRICITY":0.0002255,"INCLINATION":87.8839,"RA_OF_ASC_NODE":38.2267,"ARG_OF_PERICENTER":74.4729,"MEAN_ANOMALY":285.6647,"EPHEMERIS_TYPE":0,"CLASSIFICATION_TYPE":"U","NORAD_CAT_ID":45160,"ELEMENT_SET_NO":999,"REV_AT_EPOCH":30706,"BSTAR":-0.0010524,"MEAN_MOTION_DOT":-3.55e-06,"MEAN_MOTION_DDOT":0.0},{"OBJECT_NAME":"ONEWEB-0058","OBJECT_ID":"2020-008AG","EPOCH":"2026-06-07T08:39:12.246624","MEAN_MOTION":13.10370193,"ECCENTRICITY":0.0001548,"INCLINATION":87.8841,"RA_OF_ASC_NODE":38.2365,"ARG_OF_PERICENTER":78.8723,"MEAN_ANOMALY":281.2578,"EPHEMERIS_TYPE":0,"CLASSIFICATION_TYPE":"U","NORAD_CAT_ID":45161,"ELEMENT_SET_NO":999,"REV_AT_EPOCH":30713,"BSTAR":0.0006193300000000001,"MEAN_MOTION_DOT":2.29e-06,"MEAN_MOTION_DDOT":0.0},{"OBJECT_NAME":"ONEWEB-0059","OBJECT_ID":"2020-008AH","EPOCH":"2026-06-07T10:24:23.241312","MEAN_MOTION":13.10370002,"ECCENTRICITY":0.0001763,"INCLINATION":87.8837,"RA_OF_ASC_NODE":38.2208,"ARG_OF_PERICENTER":76.457,"MEAN_ANOMALY":283.6753,"EPHEMERIS_TYPE":0,"CLASSIFICATION_TYPE":"U","NORAD_CAT_ID":45162,"ELEMENT_SET_NO":999,"REV_AT_EPOCH":30704,"BSTAR":0.0013064,"MEAN_MOTION_DOT":4.69e-06,"MEAN_MOTION_DDOT":0.0},{"OBJECT_NAME":"ONEWEB-0062","OBJECT_ID":"2020-008AJ","EPOCH":"2026-06-07T09:07:27.992640","MEAN_MOTION":13.10370841,"ECCENTRICITY":0.0001378,"INCLINATION":87.8844,"RA_OF_ASC_NODE":38.2177,"ARG_OF_PERICENTER":85.4231,"MEAN_ANOMALY":274.7054,"EPHEMERIS_TYPE":0,"CLASSIFICATION_TYPE":"U","NORAD_CAT_ID":45163,"ELEMENT_SET_NO":999,"REV_AT_EPOCH":30690,"BSTAR":-0.0016854,"MEAN_MOTION_DOT":-5.76e-06,"MEAN_MOTION_DDOT":0.0},{"OBJECT_NAME":"ONEWEB-0065","OBJECT_ID":"2020-008AK","EPOCH":"2026-06-07T09:55:18.001920","MEAN_MOTION":13.10375206,"ECCENTRICITY":0.0002222,"INCLINATION":87.885,"RA_OF_ASC_NODE":38.2195,"ARG_OF_PERICENTER":83.5025,"MEAN_ANOMALY":276.6355,"EPHEMERIS_TYPE":0,"CLASSIFICATION_TYPE":"U","NORAD_CAT_ID":45164,"ELEMENT_SET_NO":999,"REV_AT_EPOCH":30660,"BSTAR":0.0006932500000000001,"MEAN_MOTION_DOT":2.55e-06,"MEAN_MOTION_DDOT":0.0},{"OBJECT_NAME":"ONEWEB-0066","OBJECT_ID":"2020-020A","EPOCH":"2026-06-07T09:08:13.267104","MEAN_MOTION":13.11418217,"ECCENTRICITY":0.0001718,"INCLINATION":87.8899,"RA_OF_ASC_NODE":23.0232,"ARG_OF_PERICENTER":78.9844,"MEAN_ANOMALY":281.1477,"EPHEMERIS_TYPE":0,"CLASSIFICATION_TYPE":"U","NORAD_CAT_ID":45424,"ELEMENT_SET_NO":999,"REV_AT_EPOCH":30139,"BSTAR":0.0015239,"MEAN_MOTION_DOT":5.53e-06,"MEAN_MOTION_DDOT":0.0},{"OBJECT_NAME":"ONEWEB-0067","OBJECT_ID":"2020-020B","EPOCH":"2026-06-07T08:12:58.011840","MEAN_MOTION":13.11423243,"ECCENTRICITY":0.0001996,"INCLINATION":87.8918,"RA_OF_ASC_NODE":22.9513,"ARG_OF_PERICENTER":83.6082,"MEAN_ANOMALY":276.5273,"EPHEMERIS_TYPE":0,"CLASSIFICATION_TYPE":"U","NORAD_CAT_ID":45425,"ELEMENT_SET_NO":999,"REV_AT_EPOCH":30144,"BSTAR":-0.0015289,"MEAN_MOTION_DOT":-5.29e-06,"MEAN_MOTION_DDOT":0.0},{"OBJECT_NAME":"ONEWEB-0080","OBJECT_ID":"2020-020C","EPOCH":"2026-06-07T04:32:31.147296","MEAN_MOTION":13.11417049,"ECCENTRICITY":0.0001447,"INCLINATION":87.891,"RA_OF_ASC_NODE":23.0568,"ARG_OF_PERICENTER":88.7614,"MEAN_ANOMALY":271.3679,"EPHEMERIS_TYPE":0,"CLASSIFICATION_TYPE":"U","NORAD_CAT_ID":45426,"ELEMENT_SET_NO":999,"REV_AT_EPOCH":30139,"BSTAR":-0.0014337,"MEAN_MOTION_DOT":-4.95e-06,"MEAN_MOTION_DDOT":0.0},{"OBJECT_NAME":"ONEWEB-0090","OBJECT_ID":"2020-020D","EPOCH":"2026-06-07T08:53:46.044384","MEAN_MOTION":13.1141912,"ECCENTRICITY":0.0001766,"INCLINATION":87.8906,"RA_OF_ASC_NODE":23.0254,"ARG_OF_PERICENTER":85.2065,"MEAN_ANOMALY":274.9265,"EPHEMERIS_TYPE":0,"CLASSIFICATION_TYPE":"U","NORAD_CAT_ID":45427,"ELEMENT_SET_NO":999,"REV_AT_EPOCH":30138,"BSTAR":0.00080791,"MEAN_MOTION_DOT":2.99e-06,"MEAN_MOTION_DDOT":0.0},{"OBJECT_NAME":"ONEWEB-0061","OBJECT_ID":"2020-020E","EPOCH":"2026-06-07T07:49:53.259168","MEAN_MOTION":13.11415317,"ECCENTRICITY":0.0001769,"INCLINATION":87.8903,"RA_OF_ASC_NODE":23.0186,"ARG_OF_PERICENTER":83.029,"MEAN_ANOMALY":277.1039,"EPHEMERIS_TYPE":0,"CLASSIFICATION_TYPE":"U","NORAD_CAT_ID":45428,"ELEMENT_SET_NO":999,"REV_AT_EPOCH":30133,"BSTAR":-0.00040913,"MEAN_MOTION_DOT":-1.32e-06,"MEAN_MOTION_DDOT":0.0},{"OBJECT_NAME":"ONEWEB-0081","OBJECT_ID":"2020-020F","EPOCH":"2026-06-07T00:03:46.387872","MEAN_MOTION":13.11416463,"ECCENTRICITY":0.0001871,"INCLINATION":87.89,"RA_OF_ASC_NODE":23.0939,"ARG_OF_PERICENTER":79.0989,"MEAN_ANOMALY":281.0349,"EPHEMERIS_TYPE":0,"CLASSIFICATION_TYPE":"U","NORAD_CAT_ID":45429,"ELEMENT_SET_NO":999,"REV_AT_EPOCH":30140,"BSTAR":0.0011849,"MEAN_MOTION_DOT":4.33e-06,"MEAN_MOTION_DDOT":0.0},{"OBJECT_NAME":"ONEWEB-0069","OBJECT_ID":"2020-020G","EPOCH":"2026-06-07T09:15:44.491968","MEAN_MOTION":13.11418346,"ECCENTRICITY":0.0001809,"INCLINATION":87.8903,"RA_OF_ASC_NODE":23.0203,"ARG_OF_PERICENTER":81.8309,"MEAN_ANOMALY":278.3024,"EPHEMERIS_TYPE":0,"CLASSIFICATION_TYPE":"U","NORAD_CAT_ID":45430,"ELEMENT_SET_NO":999,"REV_AT_EPOCH":30138,"BSTAR":0.0014394000000000002,"MEAN_MOTION_DOT":5.23e-06,"MEAN_MOTION_DDOT":0.0},{"OBJECT_NAME":"ONEWEB-0031","OBJECT_ID":"2020-020H","EPOCH":"2026-06-06T15:48:08.155008","MEAN_MOTION":13.11417432,"ECCENTRICITY":0.0001579,"INCLINATION":87.8895,"RA_OF_ASC_NODE":23.1707,"ARG_OF_PERICENTER":87.8366,"MEAN_ANOMALY":272.2943,"EPHEMERIS_TYPE":0,"CLASSIFICATION_TYPE":"U","NORAD_CAT_ID":45431,"ELEMENT_SET_NO":999,"REV_AT_EPOCH":30127,"BSTAR":-0.0017128,"MEAN_MOTION_DOT":-5.94e-06,"MEAN_MOTION_DDOT":0.0},{"OBJECT_NAME":"ONEWEB-0027","OBJECT_ID":"2020-020J","EPOCH":"2026-06-07T01:52:58.050624","MEAN_MOTION":13.16053388,"ECCENTRICITY":0.0001806,"INCLINATION":87.9149,"RA_OF_ASC_NODE":7.8723,"ARG_OF_PERICENTER":97.5803,"MEAN_ANOMALY":262.5533,"EPHEMERIS_TYPE":0,"CLASSIFICATION_TYPE":"U","NORAD_CAT_ID":45432,"ELEMENT_SET_NO":999,"REV_AT_EPOCH":30502,"BSTAR":-0.00028372000000000006,"MEAN_MOTION_DOT":-9.5e-07,"MEAN_MOTION_DDOT":0.0},{"OBJECT_NAME":"ONEWEB-0064","OBJECT_ID":"2020-020K","EPOCH":"2026-06-07T08:14:29.378112","MEAN_MOTION":13.11418434,"ECCENTRICITY":0.0001672,"INCLINATION":87.8901,"RA_OF_ASC_NODE":23.0265,"ARG_OF_PERICENTER":90.1549,"MEAN_ANOMALY":269.977,"EPHEMERIS_TYPE":0,"CLASSIFICATION_TYPE":"U","NORAD_CAT_ID":45433,"ELEMENT_SET_NO":999,"REV_AT_EPOCH":30139,"BSTAR":-0.0015908,"MEAN_MOTION_DOT":-5.51e-06,"MEAN_MOTION_DDOT":0.0}]